ONEWEB-0229             
1 48779U 21045N   24277.59732753 -.00002430  00000+0 -64890-2 0  9999
2 48779  87.9115  22.9032 0001715 108.0836 252.0482 13.15562538162681
ONEWEB-0228             
1 48780U 21045P   24277.55373933 -.00000032  00000+0 -12006-3 0  9997
2 48780  87.9116  22.8924 0001888 104.3513 255.7827 13.15547394162591
ONEWEB-0232             
1 48781U 21045Q   24277.52919252  .00000260  00000+0  65588-3 0  9999
2 48781  87.9115  22.9062 0001833 102.8201 257.3134 13.15549678162914
ONEWEB-0231             
1 48782U 21045R   24277.58306120  .00000241  00000+0  60519-3 0  9998
2 48782  87.9128  22.9417 0002018 106.8190 253.3161 13.15550508162617
ONEWEB-0234             
1 48783U 21045S   24277.52681826  .00000166  00000+0  40575-3 0  9998
2 48783  87.9121  22.9037 0002082  63.7268 296.4076 13.15549862162745
ONEWEB-0238             
1 48784U 21045T   24277.55691545 -.00005447  00000+0 -14506-1 0  9993
2 48784  87.9118  22.9147 0001712  84.8091 275.3235 13.15575679162648
ONEWEB-0240             
1 48785U 21045U   24277.56643105 -.00000059  00000+0 -18960-3 0  9998
2 48785  87.9114  22.8795 0002262 101.2485 258.8900 13.15548429162676
ONEWEB-0246             
1 48786U 21045V   24277.33270416 -.00000037  00000+0 -13325-3 0  9991
2 48786  87.9120  22.9323 0001830 107.3039 252.8291 13.15549993162511
